OBJECT C                
1 57582U 23117C   25013.14431474  .00009837  00000+0  43209-3 0  9997
2 57582  97.4644  88.9379 0008241 283.9340  76.0980 15.22098781 79055
